GPS BIIR-2  (PRN 13)    
1 24876U 97035A   20199.35386291  .00000080  00000-0  00000-0 0  9997
2 24876  55.4599 182.9866 0040352  58.7024 301.6900  2.00564987168618
GPS BIIR-3  (PRN 11)    
1 25933U 99055A   20199.23920472 -.00000066  00000-0  00000-0 0  9993
2 25933  52.3195  28.7233 0158400 115.5122 102.8765  2.00558193152234
GPS BIIR-4  (PRN 20)    
1 26360U 00025A   20198.63269677 -.00000044  00000-0  00000-0 0  9999
2 26360  53.5458 107.9575 0052228 155.6743  22.9164  2.00565164147918
GPS BIIR-5  (PRN 28)    
1 26407U 00040A   20199.45000934 -.00000041  00000-0  00000-0 0  9995
2 26407  55.9724 300.9903 0186219 279.4095  91.5836  2.00564924146612
GPS BIIR-6  (PRN 14)    
1 26605U 00071A   20198.79748340  .00000078  00000-0  00000-0 0  9994
2 26605  55.0358 180.2961 0117739 250.9482 284.9117  2.00564067144193
GPS BIIR-8  (PRN 16)    
1 27663U 03005A   20199.00623427 -.00000045  00000-0  00000+0 0  9996
2 27663  56.0280 300.7955 0113082  35.5305 136.3432  2.00550036127959
GPS BIIR-9  (PRN 21)    
1 27704U 03010A   20199.12688181 -.00000054  00000-0  00000-0 0  9990
2 27704  54.6469  51.7863 0240142 284.7703 266.4084  2.00397223126760
GPS BIIR-10 (PRN 22)    
1 28129U 03058A   20199.04632506 -.00000040  00000-0  00000-0 0  9990
2 28129  53.3566 110.6498 0071410 295.1703  64.1013  2.00550156121442
GPS BIIR-11 (PRN 19)    
1 28190U 04009A   20199.28703712 -.00000069  00000-0  00000-0 0  9990
2 28190  56.2711   1.5851 0091943  95.7815  75.7801  2.00561949119640
GPS BIIR-13 (PRN 02)    
1 28474U 04045A   20199.41371987 -.00000052  00000-0  00000-0 0  9997
2 28474  54.9902  51.6634 0199339 267.4100 273.0390  2.00556298115092
GPS BIIRM-1 (PRN 17)    
1 28874U 05038A   20199.26825293 -.00000070  00000-0  00000+0 0  9990
2 28874  56.3718 358.9760 0134762 265.9978 272.1933  2.00557907108481
GPS BIIRM-2 (PRN 31)    
1 29486U 06042A   20199.12688181  .00000086  00000-0  00000-0 0  9991
2 29486  54.8538 237.1928 0095123   6.4954 352.5950  2.00570551101077
GPS BIIRM-3 (PRN 12)    
1 29601U 06052A   20198.57885983 -.00000046  00000-0  00000-0 0  9995
2 29601  56.0161 299.7321 0077679  66.1972 294.6455  2.00565574100054
GPS BIIRM-4 (PRN 15)    
1 32260U 07047A   20198.88218033  .00000056  00000-0  00000-0 0  9995
2 32260  53.1940 169.5713 0122834  50.4559 310.6022  2.00558102 93501
GPS BIIRM-5 (PRN 29)    
1 32384U 07062A   20192.62953494 -.00000087  00000-0  00000-0 0  9997
2 32384  56.4697 359.9133 0013869 120.3432 177.8864  2.00577660 92076
GPS BIIRM-6 (PRN 07)    
1 32711U 08012A   20199.30048692  .00000087  00000-0  00000+0 0  9992
2 32711  54.6009 236.2825 0142581 224.3085 134.6250  2.00565751 90419
GPS BIIRM-8 (PRN 05)    
1 35752U 09043A   20199.50024920 -.00000034  00000-0  00000-0 0  9999
2 35752  54.6077 113.8208 0058496  45.7642 130.7377  2.00560486 80025
GPS BIIF-1  (PRN 25)    
1 36585U 10022A   20199.10291458 -.00000036  00000-0  00000-0 0  9993
2 36585  55.2893 295.7255 0089121  53.0259 301.2081  2.00553085 74241
GPS BIIF-2  (PRN 01)    
1 37753U 11036A   20198.24041531 -.00000056  00000-0  00000+0 0  9997
2 37753  56.1950  56.1406 0098689  45.1760 132.8206  2.00560334 65903
GPS BIIF-3  (PRN 24)    
1 38833U 12053A   20196.48948783  .00000068  00000-0  00000-0 0  9999
2 38833  53.6445 232.2156 0096286  37.1886 323.5470  2.00566424 56159
GPS BIIF-4  (PRN 27)    
1 39166U 13023A   20197.84353611 -.00000074  00000-0  00000-0 0  9996
2 39166  56.0336 355.6684 0081970  31.7886 328.7152  2.00564856 52512
GPS BIIF-5  (PRN 30)    
1 39533U 14008A   20198.84263233  .00000081  00000-0  00000-0 0  9996
2 39533  53.7585 237.5564 0048298 200.5751 159.3128  2.00569517 46353
GPS BIIF-6  (PRN 06)    
1 39741U 14026A   20198.12409574 -.00000057  00000-0  00000-0 0  9992
2 39741  56.1688  55.6726 0020027 295.9995  63.8630  2.00575499 45174
GPS BIIF-7  (PRN 09)    
1 40105U 14045A   20198.71327108  .00000069  00000-0  00000-0 0  9998
2 40105  54.5948 174.7809 0013302 104.3964 255.7393  2.00560967 42756
GPS BIIF-8  (PRN 03)    
1 40294U 14068A   20198.08026914 -.00000035  00000-0  00000-0 0  9997
2 40294  55.3571 115.7441 0029101  41.9183 318.3060  2.00550394 41845
GPS BIIF-9  (PRN 26)    
1 40534U 15013A   20198.71802933 -.00000036  00000-0  00000-0 0  9999
2 40534  54.2041 293.6654 0047289   9.7309 350.4010  2.00566517 38474
GPS BIIF-10 (PRN 08)    
1 40730U 15033A   20198.87841548 -.00000074  00000-0  00000+0 0  9992
2 40730  55.5492 354.7858 0053790 354.2199   5.7272  2.00561654 36666
GPS BIIF-11 (PRN 10)    
1 41019U 15062A   20197.93203323 -.00000036  00000-0  00000-0 0  9993
2 41019  55.3539 115.5773 0058134 210.6203 149.0426  2.00564318 34463
GPS BIIF-12 (PRN 32)    
1 41328U 16007A   20199.02306479  .00000068  00000-0  00000+0 0  9997
2 41328  54.8300 175.2624 0042399 223.0601 136.5954  2.00556181 32543
GPS BIII-1  (PRN 04)    
1 43873U 18109A   20199.25781396  .00000071  00000-0  00000-0 0  9994
2 43873  55.0108 177.5273 0009210 220.6107 202.6425  2.00565348 11778
GPS BIII-2  (PRN 18)    
1 44506U 19056A   20195.56205740 -.00000077  00000-0  00000-0 0  9991
2 44506  55.2512  57.1932 0006542 165.2139  13.6571  2.00558838  6651
